PERSEUS-M1              
1 40039U 14033AF  26170.57845526  .00001374  00000+0  12899-3 0  9991
2 40039  97.9640 114.7493 0010133 292.2356  67.7790 14.95636995650991
POLYITAN-1              
1 40042U 14033AJ  26170.33641670  .00016256  00000+0  50656-3 0  9991
2 40042  98.0941 196.8009 0008752 135.2104 224.9844 15.33319639653925
TIGRISAT                
1 40043U 14033AK  26170.47394176  .00001548  00000+0  18306-3 0  9997
2 40043  97.7834 320.4330 0050515  67.8951 292.7617 14.85169819645964
AEROCUBE 6A             
1 40045U 14033AM  26170.36126811  .00004052  00000+0  34190-3 0  9998
2 40045  97.7252 337.2870 0038716  10.6828 349.5208 14.98126940646941
AEROCUBE 6B             
1 40046U 14033AN  26170.36148202  .00004034  00000+0  32793-3 0  9994
2 40046  97.7249 337.0821 0038150   1.8619 358.2739 14.99587127647085
CANX-4                  
1 40055U 14034C   26170.58371055  .00000663  00000+0  92291-4 0  9997
2 40055  98.3119  45.9848 0012989   9.5361 350.6094 14.81268197644882
CANX-5                  
1 40056U 14034D   26170.58211587  .00000672  00000+0  93471-4 0  9992
2 40056  98.3120  46.0268 0012988   9.7788 350.3674 14.81285489635690
UKUBE-1                 
1 40074U 14037F   26170.54821292  .00007009  00000+0  39481-3 0  9992
2 40074  98.4239 174.0682 0002749 127.9455 232.2022 15.13585482648918
BRITE-PL2 (HEWELIUSZ)   
1 40119U 14049B   26170.58252109  .00001660  00000+0  15858-3 0  9993
2 40119  97.9101 282.6009 0015364 101.3495 258.9452 14.94600826641807
AEROCUBE 5C             
1 40965U 15058B   26170.51766627  .00001654  00000+0  15535-3 0  9996
2 40965  64.7671 255.3406 0130857  62.3484 299.0840 14.91461880366002
AEROCUBE 7              
1 40966U 15058C   26170.57420318  .00002310  00000+0  19296-3 0  9995
2 40966  64.7613 237.3394 0120594  60.7422 300.5685 14.95736710366316
FOX-1A (AO-85)          
1 40967U 15058D   26170.56601712  .00001743  00000+0  16501-3 0  9999
2 40967  64.7756 271.5912 0130575  55.6754 305.6634 14.90978359113921
SINOD-D 1               
1 40968U 15058E   26170.55186933  .00002366  00000+0  19692-3 0  9998
2 40968  64.7746 251.5076 0119197  52.1415 309.0411 14.95917149117013
SNAP-3 ALICE            
1 40970U 15058G   26170.22482152  .00119396  00000+0  13971-2 0  9992
2 40970  64.7499  96.8866 0027580  11.6673 348.5106 15.60483812117206
LMRST-SAT               
1 40971U 15058H   26170.52192702  .00001551  00000+0  14944-3 0  9990
2 40971  64.7751 268.0704 0132188  57.7177 303.6661 14.90597588113902
SNAP-3 EDDIE            
1 40972U 15058J   26170.46933226  .00122718  00000+0  13634-2 0  9991
2 40972  64.7421  86.7482 0027230  15.2972 344.8991 15.61823790119385
PROPCUBE 3              
1 40973U 15058K   26170.55178061  .00001974  00000+0  17216-3 0  9991
2 40973  64.7678 245.1481 0124167  58.9778 302.3459 14.94267025115152
BISONSAT                
1 40974U 15058L   26170.40767934  .00011000  00000+0  53187-3 0  9997
2 40974  64.7582 166.4651 0079286  46.3425 314.4236 15.16233657115956
SNAP-3 JIMI             
1 40975U 15058M   26170.51909891  .00003541  00000+0  24913-3 0  9996
2 40975  64.7632 212.3943 0106301  54.4226 306.6741 15.02313920114574
PROPCUBE 1 (FLORA)      
1 40976U 15058N   26170.61330748  .00001619  00000+0  16129-3 0  9991
2 40976  64.7742 287.7167 0130863  59.9967 301.4055 14.89230492116628
SINOD-D 3               
1 40977U 15058P   26170.51691065  .00002325  00000+0  20356-3 0  9995
2 40977  64.7726 268.5443 0119386  57.2109 304.0438 14.94027166115105
HORYU-4                 
1 41340U 16012D   26170.06239089  .00441316  73851-4  93802-3 0  9997
2 41340  30.9841  65.2425 0006076 284.0603  75.9383 15.97473078571116
RAVAN                   
1 41849U 16067B   26170.48935623  .00044480  00000+0  66536-3 0  9990
2 41849  97.9881  60.3266 0004000  24.5682 335.5760 15.54868993528051
CELTEE 1                
1 41850U 16067C   26170.57749517  .00004334  00000+0  20663-3 0  9992
2 41850  98.0668  37.3072 0001075 128.9694 231.1635 15.19701017526243
OPTICUBE 04             
1 41851U 16067D   26170.53159309  .00001893  00000+0  12166-3 0  9999
2 41851  98.0697  22.9376 0016952 108.2922 252.0152 15.09667878525529
AEROCUBE 8D             
1 41852U 16067E   26170.58428232  .00006185  00000+0  25539-3 0  9996
2 41852  98.0674  40.9374 0004838 117.5198 242.6529 15.24424989526436
AEROCUBE 8C             
1 41853U 16067F   26170.08384315  .00005845  00000+0  23976-3 0  9990
2 41853  98.0544  37.6237 0006529  63.7296 296.4610 15.24668047526358
CORVUS BC2              
1 42846U 17042X   26170.38703723  .00003058  00000+0  21163-3 0  9998
2 42846  97.4075 331.6508 0014516 103.5919 256.6926 15.06310794487392
CORVUS BC1              
1 42847U 17042Y   26170.51424183  .00002516  00000+0  17416-3 0  9998
2 42847  97.4109 332.5888 0013496  82.2066 278.0693 15.06479118487445
MAKERSAT 0              
1 43016U 17073D   26170.20457006  .00014640  00000+0  39819-3 0  9999
2 43016  97.4615  52.7389 0104988 265.6718  93.2521 15.32154743466774
